CCSDS_OMM_VERS = 2.0
CREATION_DATE  = 
ORIGINATOR     = 

OBJECT_NAME    = SL-3 R/B
OBJECT_ID      = 1982-079B
CENTER_NAME    = EARTH
REF_FRAME      = TEME
TIME_SYSTEM    = UTC
MEAN_ELEMENT_THEORY = SGP/SGP4

EPOCH          = 2026-03-22T06:22:41.003904
MEAN_MOTION    = 15.24969039
ECCENTRICITY   = .0025471
INCLINATION    = 81.1489
RA_OF_ASC_NODE = 178.2289
ARG_OF_PERICENTER = 123.3322
MEAN_ANOMALY   = 237.0355

EPHEMERIS_TYPE = 0
CLASSIFICATION_TYPE = U
NORAD_CAT_ID   = 13403
ELEMENT_SET_NO = 999
REV_AT_EPOCH   = 37961
BSTAR          = .29872522E-3
MEAN_MOTION_DOT = .7542E-4
MEAN_MOTION_DDOT = 0

CCSDS_OMM_VERS = 2.0
CREATION_DATE  = 
ORIGINATOR     = 

OBJECT_NAME    = SL-14 R/B
OBJECT_ID      = 1982-092B
CENTER_NAME    = EARTH
REF_FRAME      = TEME
TIME_SYSTEM    = UTC
MEAN_ELEMENT_THEORY = SGP/SGP4

EPOCH          = 2026-03-22T05:33:38.728800
MEAN_MOTION    = 14.86677484
ECCENTRICITY   = .00187852
INCLINATION    = 82.5671
RA_OF_ASC_NODE = 129.6677
ARG_OF_PERICENTER = 258.6633
MEAN_ANOMALY   = 172.8112

EPHEMERIS_TYPE = 0
CLASSIFICATION_TYPE = U
NORAD_CAT_ID   = 13553
ELEMENT_SET_NO = 999
REV_AT_EPOCH   = 33079
BSTAR          = .46511839E-4
MEAN_MOTION_DOT = .439E-5
MEAN_MOTION_DDOT = 0

CCSDS_OMM_VERS = 2.0
CREATION_DATE  = 
ORIGINATOR     = 

OBJECT_NAME    = SL-3 R/B
OBJECT_ID      = 1983-010B
CENTER_NAME    = EARTH
REF_FRAME      = TEME
TIME_SYSTEM    = UTC
MEAN_ELEMENT_THEORY = SGP/SGP4

EPOCH          = 2026-03-22T04:23:53.728800
MEAN_MOTION    = 15.46772572
ECCENTRICITY   = .00167418
INCLINATION    = 81.1057
RA_OF_ASC_NODE = 346.9279
ARG_OF_PERICENTER = 9.4720
MEAN_ANOMALY   = 350.6837

EPHEMERIS_TYPE = 0
CLASSIFICATION_TYPE = U
NORAD_CAT_ID   = 13819
ELEMENT_SET_NO = 999
REV_AT_EPOCH   = 35987
BSTAR          = .37713176E-3
MEAN_MOTION_DOT = .19039E-3
MEAN_MOTION_DDOT = 0

CCSDS_OMM_VERS = 2.0
CREATION_DATE  = 
ORIGINATOR     = 

OBJECT_NAME    = SL-3 R/B
OBJECT_ID      = 1983-075B
CENTER_NAME    = EARTH
REF_FRAME      = TEME
TIME_SYSTEM    = UTC
MEAN_ELEMENT_THEORY = SGP/SGP4

EPOCH          = 2026-03-22T05:44:42.447552
MEAN_MOTION    = 15.38701036
ECCENTRICITY   = .00215161
INCLINATION    = 97.6142
RA_OF_ASC_NODE = 86.2945
ARG_OF_PERICENTER = 179.4025
MEAN_ANOMALY   = 180.7249

EPHEMERIS_TYPE = 0
CLASSIFICATION_TYPE = U
NORAD_CAT_ID   = 14208
ELEMENT_SET_NO = 999
REV_AT_EPOCH   = 33208
BSTAR          = .33366375E-3
MEAN_MOTION_DOT = .12778E-3
MEAN_MOTION_DDOT = 0

CCSDS_OMM_VERS = 2.0
CREATION_DATE  = 
ORIGINATOR     = 

OBJECT_NAME    = COSMOS 1536
OBJECT_ID      = 1984-013A
CENTER_NAME    = EARTH
REF_FRAME      = TEME
TIME_SYSTEM    = UTC
MEAN_ELEMENT_THEORY = SGP/SGP4

EPOCH          = 2026-03-22T03:07:28.898112
MEAN_MOTION    = 15.23982382
ECCENTRICITY   = .00127245
INCLINATION    = 82.5415
RA_OF_ASC_NODE = 95.4789
ARG_OF_PERICENTER = 233.7903
MEAN_ANOMALY   = 126.2159

EPHEMERIS_TYPE = 0
CLASSIFICATION_TYPE = U
NORAD_CAT_ID   = 14699
ELEMENT_SET_NO = 999
REV_AT_EPOCH   = 27451
BSTAR          = .33138685E-3
MEAN_MOTION_DOT = .807E-4
MEAN_MOTION_DDOT = 0

CCSDS_OMM_VERS = 2.0
CREATION_DATE  = 
ORIGINATOR     = 

OBJECT_NAME    = SL-14 R/B
OBJECT_ID      = 1984-027B
CENTER_NAME    = EARTH
REF_FRAME      = TEME
TIME_SYSTEM    = UTC
MEAN_ELEMENT_THEORY = SGP/SGP4

EPOCH          = 2026-03-22T03:36:44.082144
MEAN_MOTION    = 14.85988944
ECCENTRICITY   = .00165791
INCLINATION    = 82.5402
RA_OF_ASC_NODE = 233.3240
ARG_OF_PERICENTER = 294.2395
MEAN_ANOMALY   = 65.7089

EPHEMERIS_TYPE = 0
CLASSIFICATION_TYPE = U
NORAD_CAT_ID   = 14820
ELEMENT_SET_NO = 999
REV_AT_EPOCH   = 24948
BSTAR          = .5637991E-4
MEAN_MOTION_DOT = .517E-5
MEAN_MOTION_DDOT = 0

CCSDS_OMM_VERS = 2.0
CREATION_DATE  = 
ORIGINATOR     = 

OBJECT_NAME    = SL-8 R/B
OBJECT_ID      = 1985-006B
CENTER_NAME    = EARTH
REF_FRAME      = TEME
TIME_SYSTEM    = UTC
MEAN_ELEMENT_THEORY = SGP/SGP4

EPOCH          = 2026-03-22T04:53:28.562784
MEAN_MOTION    = 14.37792391
ECCENTRICITY   = .00179297
INCLINATION    = 74.0439
RA_OF_ASC_NODE = 238.1190
ARG_OF_PERICENTER = 152.4789
MEAN_ANOMALY   = 20.1682

EPHEMERIS_TYPE = 0
CLASSIFICATION_TYPE = U
NORAD_CAT_ID   = 15483
ELEMENT_SET_NO = 999
REV_AT_EPOCH   = 15582
BSTAR          = .12722229E-3
MEAN_MOTION_DOT = .358E-5
MEAN_MOTION_DDOT = 0

CCSDS_OMM_VERS = 2.0
CREATION_DATE  = 
ORIGINATOR     = 

OBJECT_NAME    = SL-12 R/B(2)
OBJECT_ID      = 1985-042D
CENTER_NAME    = EARTH
REF_FRAME      = TEME
TIME_SYSTEM    = UTC
MEAN_ELEMENT_THEORY = SGP/SGP4

EPOCH          = 2026-03-22T07:02:19.968288
MEAN_MOTION    = 14.21985689
ECCENTRICITY   = .00328863
INCLINATION    = 71.1073
RA_OF_ASC_NODE = 61.0983
ARG_OF_PERICENTER = 107.2673
MEAN_ANOMALY   = 350.8948

EPHEMERIS_TYPE = 0
CLASSIFICATION_TYPE = U
NORAD_CAT_ID   = 15772
ELEMENT_SET_NO = 999
REV_AT_EPOCH   = 11618
BSTAR          = .68824081E-4
MEAN_MOTION_DOT = .105E-5
MEAN_MOTION_DDOT = 0

CCSDS_OMM_VERS = 2.0
CREATION_DATE  = 
ORIGINATOR     = 

OBJECT_NAME    = SL-14 R/B
OBJECT_ID      = 1985-069B
CENTER_NAME    = EARTH
REF_FRAME      = TEME
TIME_SYSTEM    = UTC
MEAN_ELEMENT_THEORY = SGP/SGP4

EPOCH          = 2026-03-22T04:46:18.441984
MEAN_MOTION    = 14.86446440
ECCENTRICITY   = .00195776
INCLINATION    = 82.5302
RA_OF_ASC_NODE = 13.1730
ARG_OF_PERICENTER = 146.9008
MEAN_ANOMALY   = 213.3438

EPHEMERIS_TYPE = 0
CLASSIFICATION_TYPE = U
NORAD_CAT_ID   = 15945
ELEMENT_SET_NO = 999
REV_AT_EPOCH   = 17469
BSTAR          = .558868E-4
MEAN_MOTION_DOT = .52E-5
MEAN_MOTION_DDOT = 0

CCSDS_OMM_VERS = 2.0
CREATION_DATE  = 
ORIGINATOR     = 

OBJECT_NAME    = SL-16 R/B
OBJECT_ID      = 1985-097B
CENTER_NAME    = EARTH
REF_FRAME      = TEME
TIME_SYSTEM    = UTC
MEAN_ELEMENT_THEORY = SGP/SGP4

EPOCH          = 2026-03-22T06:38:08.911392
MEAN_MOTION    = 14.16601633
ECCENTRICITY   = .00095678
INCLINATION    = 71.0012
RA_OF_ASC_NODE = 114.0551
ARG_OF_PERICENTER = 244.7577
MEAN_ANOMALY   = 193.0382

EPHEMERIS_TYPE = 0
CLASSIFICATION_TYPE = U
NORAD_CAT_ID   = 16182
ELEMENT_SET_NO = 999
REV_AT_EPOCH   = 8901
BSTAR          = .14644599E-3
MEAN_MOTION_DOT = .244E-5
MEAN_MOTION_DDOT = 0

CCSDS_OMM_VERS = 2.0
CREATION_DATE  = 
ORIGINATOR     = 

OBJECT_NAME    = SL-14 R/B
OBJECT_ID      = 1986-006B
CENTER_NAME    = EARTH
REF_FRAME      = TEME
TIME_SYSTEM    = UTC
MEAN_ELEMENT_THEORY = SGP/SGP4

EPOCH          = 2026-03-22T04:08:38.567040
MEAN_MOTION    = 14.86832902
ECCENTRICITY   = .00753549
INCLINATION    = 82.5239
RA_OF_ASC_NODE = 247.9852
ARG_OF_PERICENTER = 230.6350
MEAN_ANOMALY   = 128.8176

EPHEMERIS_TYPE = 0
CLASSIFICATION_TYPE = U
NORAD_CAT_ID   = 16496
ELEMENT_SET_NO = 999
REV_AT_EPOCH   = 15106
BSTAR          = .81823501E-4
MEAN_MOTION_DOT = .794E-5
MEAN_MOTION_DDOT = 0

CCSDS_OMM_VERS = 2.0
CREATION_DATE  = 
ORIGINATOR     = 

OBJECT_NAME    = COSMOS 1743
OBJECT_ID      = 1986-034A
CENTER_NAME    = EARTH
REF_FRAME      = TEME
TIME_SYSTEM    = UTC
MEAN_ELEMENT_THEORY = SGP/SGP4

EPOCH          = 2026-03-22T05:20:07.902816
MEAN_MOTION    = 15.59510122
ECCENTRICITY   = .00029037
INCLINATION    = 82.5302
RA_OF_ASC_NODE = 60.6662
ARG_OF_PERICENTER = 194.8573
MEAN_ANOMALY   = 165.2599

EPHEMERIS_TYPE = 0
CLASSIFICATION_TYPE = U
NORAD_CAT_ID   = 16719
ELEMENT_SET_NO = 999
REV_AT_EPOCH   = 18220
BSTAR          = .57183074E-3
MEAN_MOTION_DOT = .45536E-3
MEAN_MOTION_DDOT = 0

