TLE2=2 15772  71.1073  61.0983 0032886 107.2673 350.8948 14.21985689116180
TLE2=2 15483  74.0439 238.1190 0017929 152.4789  20.1682 14.37792391155824
TLE2=2 13403  81.1489 178.2289 0025471 123.3322 237.0355 15.24969039379615
TLE2=2 14820  82.5402 233.3240 0016579 294.2395  65.7089 14.85988944249489
TLE2=2 15945  82.5302  13.1730 0019577 146.9008 213.3438 14.86446440174690
TLE2=2 13819  81.1057 346.9279 0016741   9.4720 350.6837 15.46772572359877
TLE2=2 16182  71.0012 114.0551 0009567 244.7577 193.0382 14.16601633 89016
TLE2=2 14208  97.6142  86.2945 0021516 179.4025 180.7249 15.38701036332084
TLE2=2 16496  82.5239 247.9852 0075354 230.6350 128.8176 14.86832902151066
TLE2=2 14699  82.5415  95.4789 0012724 233.7903 126.2159 15.23982382274519
TLE2=2 13553  82.5671 129.6677 0018785 258.6633 172.8112 14.86677484330797
TLE2=2 16719  82.5302  60.6662 0002903 194.8573 165.2599 15.59510122182204
